{
  "type": "FeatureCollection",
  "features": [
    {
      "type": "Feature",
      "properties": {
        "norad_id": 36828,
        "name": "BEIDOU-2 IGSO-1 (C06)",
        "group": "beidou",
        "lat": 54.21821869849769,
        "lon": -105.46971303808036,
        "alt_km": 35904.85370969596,
        "timestamp": "2025-12-05T04:52:15.558285+00:00",
        "meta_object_name": "BEIDOU-2 IGSO-1 (C06)",
        "meta_object_id": "2010-036A",
        "meta_epoch": "2025-12-04T10:48:55.401408",
        "meta_mean_motion": 1.0027836,
        "meta_eccentricity": 0.0051251,
        "meta_inclination": 54.2839,
        "meta_ra_of_asc_node": 164.7233,
        "meta_arg_of_pericenter": 215.778,
        "meta_mean_anomaly": 323.0243,
        "meta_ephemeris_type": 0,
        "meta_classification_type": "U",
        "meta_norad_cat_id": 36828,
        "meta_element_set_no": 999,
        "meta_rev_at_epoch": 5614,
        "meta_bstar": 0,
        "meta_mean_motion_dot": -3.3e-07,
        "meta_mean_motion_ddot": 0,
        "tle_line1": "1 36828U 10036A   25338.45064122 -.00000033  00000+0  00000+0 0  9997",
        "tle_line2": "2 36828  54.2839 164.7233 0051251 215.7780 323.0243  1.00278360 56140"
      },
      "geometry": {
        "type": "Point",
        "coordinates": [
          -105.46971303808036,
          54.21821869849769
        ]
      }
    },
    {
      "type": "Feature",
      "properties": {
        "norad_id": 37210,
        "name": "BEIDOU-2 G4 (C04)",
        "group": "beidou",
        "lat": -2.681173480423967,
        "lon": -52.55689922190643,
        "alt_km": 35755.90816702234,
        "timestamp": "2025-12-05T04:52:15.558314+00:00",
        "meta_object_name": "BEIDOU-2 G4 (C04)",
        "meta_object_id": "2010-057A",
        "meta_epoch": "2025-12-04T16:11:57.897024",
        "meta_mean_motion": 1.00271291,
        "meta_eccentricity": 0.0010952,
        "meta_inclination": 3.1633,
        "meta_ra_of_asc_node": 69.9584,
        "meta_arg_of_pericenter": 188.8835,
        "meta_mean_anomaly": 217.9649,
        "meta_ephemeris_type": 0,
        "meta_classification_type": "U",
        "meta_norad_cat_id": 37210,
        "meta_element_set_no": 999,
        "meta_rev_at_epoch": 5534,
        "meta_bstar": 0,
        "meta_mean_motion_dot": -9.9e-07,
        "meta_mean_motion_ddot": 0,
        "tle_line1": "1 37210U 10057A   25338.67497566 -.00000099  00000+0  00000+0 0  9994",
        "tle_line2": "2 37210   3.1633  69.9584 0010952 188.8835 217.9649  1.00271291 55348"
      },
      "geometry": {
        "type": "Point",
        "coordinates": [
          -52.55689922190643,
          -2.681173480423967
        ]
      }
    },
    {
      "type": "Feature",
      "properties": {
        "norad_id": 37256,
        "name": "BEIDOU-2 IGSO-2 (C07)",
        "group": "beidou",
        "lat": -14.119864388938911,
        "lon": -98.9126613524368,
        "alt_km": 35901.296065760864,
        "timestamp": "2025-12-05T04:52:15.558328+00:00",
        "meta_object_name": "BEIDOU-2 IGSO-2 (C07)",
        "meta_object_id": "2010-068A",
        "meta_epoch": "2025-12-03T17:22:36.030432",
        "meta_mean_motion": 1.0028871,
        "meta_eccentricity": 0.00492335,
        "meta_inclination": 47.9043,
        "meta_ra_of_asc_node": 274.2613,
        "meta_arg_of_pericenter": 216.1442,
        "meta_mean_anomaly": 310.2369,
        "meta_ephemeris_type": 0,
        "meta_classification_type": "U",
        "meta_norad_cat_id": 37256,
        "meta_element_set_no": 999,
        "meta_rev_at_epoch": 5483,
        "meta_bstar": 0,
        "meta_mean_motion_dot": -2.25e-06,
        "meta_mean_motion_ddot": 0,
        "tle_line1": "1 37256U 10068A   25337.72402813 -.00000225  00000+0  00000+0 0  9993",
        "tle_line2": "2 37256  47.9043 274.2613 0049233 216.1442 310.2369  1.00288710 54839"
      },
      "geometry": {
        "type": "Point",
        "coordinates": [
          -98.9126613524368,
          -14.119864388938911
        ]
      }
    },
    {
      "type": "Feature",
      "properties": {
        "norad_id": 37384,
        "name": "BEIDOU-2 IGSO-3 (C08)",
        "group": "beidou",
        "lat": -28.921883859155525,
        "lon": -121.00933441654126,
        "alt_km": 35656.37923314072,
        "timestamp": "2025-12-05T04:52:15.558339+00:00",
        "meta_object_name": "BEIDOU-2 IGSO-3 (C08)",
        "meta_object_id": "2011-013A",
        "meta_epoch": "2025-12-03T14:52:09.520896",
        "meta_mean_motion": 1.00272128,
        "meta_eccentricity": 0.00353922,
        "meta_inclination": 62.1308,
        "meta_ra_of_asc_node": 42.005,
        "meta_arg_of_pericenter": 186.5359,
        "meta_mean_anomaly": 174.9093,
        "meta_ephemeris_type": 0,
        "meta_classification_type": "U",
        "meta_norad_cat_id": 37384,
        "meta_element_set_no": 999,
        "meta_rev_at_epoch": 5370,
        "meta_bstar": 0,
        "meta_mean_motion_dot": -1.99e-06,
        "meta_mean_motion_ddot": 0,
        "tle_line1": "1 37384U 11013A   25337.61955464 -.00000199  00000+0  00000+0 0  9999",
        "tle_line2": "2 37384  62.1308  42.0050 0035392 186.5359 174.9093  1.00272128 53708"
      },
      "geometry": {
        "type": "Point",
        "coordinates": [
          -121.00933441654126,
          -28.921883859155525
        ]
      }
    },
    {
      "type": "Feature",
      "properties": {
        "norad_id": 37763,
        "name": "BEIDOU-2 IGSO-4 (C09)",
        "group": "beidou",
        "lat": 51.26971140867402,
        "lon": -129.8606204996759,
        "alt_km": 36354.223111588566,
        "timestamp": "2025-12-05T04:52:15.558351+00:00",
        "meta_object_name": "BEIDOU-2 IGSO-4 (C09)",
        "meta_object_id": "2011-038A",
        "meta_epoch": "2025-12-01T12:32:09.960864",
        "meta_mean_motion": 1.00284074,
        "meta_eccentricity": 0.01487808,
        "meta_inclination": 54.5808,
        "meta_ra_of_asc_node": 167.4476,
        "meta_arg_of_pericenter": 230.2031,
        "meta_mean_anomaly": 315.0387,
        "meta_ephemeris_type": 0,
        "meta_classification_type": "U",
        "meta_norad_cat_id": 37763,
        "meta_element_set_no": 999,
        "meta_rev_at_epoch": 5266,
        "meta_bstar": 0,
        "meta_mean_motion_dot": 1.01e-06,
        "meta_mean_motion_ddot": 0,
        "tle_line1": "1 37763U 11038A   25335.52233751  .00000101  00000+0  00000+0 0  9995",
        "tle_line2": "2 37763  54.5808 167.4476 0148780 230.2031 315.0387  1.00284074 52664"
      },
      "geometry": {
        "type": "Point",
        "coordinates": [
          -129.8606204996759,
          51.26971140867402
        ]
      }
    },
    {
      "type": "Feature",
      "properties": {
        "norad_id": 37948,
        "name": "BEIDOU-2 IGSO-5 (C10)",
        "group": "beidou",
        "lat": -23.82482428398957,
        "lon": -109.44610609670937,
        "alt_km": 35899.83134191782,
        "timestamp": "2025-12-05T04:52:15.558362+00:00",
        "meta_object_name": "BEIDOU-2 IGSO-5 (C10)",
        "meta_object_id": "2011-073A",
        "meta_epoch": "2025-12-03T19:19:36.726816",
        "meta_mean_motion": 1.00292258,
        "meta_eccentricity": 0.01106709,
        "meta_inclination": 48.0381,
        "meta_ra_of_asc_node": 273.9687,
        "meta_arg_of_pericenter": 222.1681,
        "meta_mean_anomaly": 319.0723,
        "meta_ephemeris_type": 0,
        "meta_classification_type": "U",
        "meta_norad_cat_id": 37948,
        "meta_element_set_no": 999,
        "meta_rev_at_epoch": 5117,
        "meta_bstar": 0,
        "meta_mean_motion_dot": -1.77e-06,
        "meta_mean_motion_ddot": 0,
        "tle_line1": "1 37948U 11073A   25337.80528619 -.00000177  00000+0  00000+0 0  9996",
        "tle_line2": "2 37948  48.0381 273.9687 0110670 222.1681 319.0723  1.00292258 51174"
      },
      "geometry": {
        "type": "Point",
        "coordinates": [
          -109.44610609670937,
          -23.82482428398957
        ]
      }
    },
    {
      "type": "Feature",
      "properties": {
        "norad_id": 38091,
        "name": "BEIDOU-2 G5 (C05)",
        "group": "beidou",
        "lat": 2.1568515905614287,
        "lon": -154.0738834799371,
        "alt_km": 35785.6913789068,
        "timestamp": "2025-12-05T04:52:15.558373+00:00",
        "meta_object_name": "BEIDOU-2 G5 (C05)",
        "meta_object_id": "2012-008A",
        "meta_epoch": "2025-12-04T17:25:50.820960",
        "meta_mean_motion": 1.00272702,
        "meta_eccentricity": 0.0012417,
        "meta_inclination": 3.088,
        "meta_ra_of_asc_node": 70.7318,
        "meta_arg_of_pericenter": 225.7173,
        "meta_mean_anomaly": 97.5153,
        "meta_ephemeris_type": 0,
        "meta_classification_type": "U",
        "meta_norad_cat_id": 38091,
        "meta_element_set_no": 999,
        "meta_rev_at_epoch": 5041,
        "meta_bstar": 0,
        "meta_mean_motion_dot": 6.9e-07,
        "meta_mean_motion_ddot": 0,
        "tle_line1": "1 38091U 12008A   25338.72628265  .00000069  00000+0  00000+0 0  9994",
        "tle_line2": "2 38091   3.0880  70.7318 0012417 225.7173  97.5153  1.00272702 50411"
      },
      "geometry": {
        "type": "Point",
        "coordinates": [
          -154.0738834799371,
          2.1568515905614287
        ]
      }
    }
  ]
}